NORAD_CAT_ID,OBJECT_NAME,OBJECT_TYPE,EPOCH,MEAN_MOTION,ECCENTRICITY,INCLINATION,RA_OF_ASC_NODE,ARG_OF_PERICENTER,MEAN_ANOMALY,BSTAR,MEAN_MOTION_DOT,MEAN_MOTION_DDOT,TLE_LINE0,TLE_LINE1,TLE_LINE2,SEMIMAJOR_AXIS,PERIOD,APOGEE,PERIGEE,DECAYED
51861.0,STARLINK-3562,PAYLOAD,2023-12-24 12:08:25,15.08848224,0.0001793,53.2192,28.2146,100.8749,259.2445,2.052e-05,3.9e-07,0.0,0 STARLINK-3562,1 51861U 22022K   23358.50585020  .00000039  00000-0  20520-4 0  9990,2 51861  53.2192  28.2146 0001793 100.8749 259.2445 15.08848224101394,6917.855,95.437,540.961,538.48,0.0
51861.0,STARLINK-3562,PAYLOAD,2023-12-25 02:26:54,15.08840653,0.0001721,53.2194,25.5368,107.6797,252.4383,1.4749e-05,-5.3e-07,0.0,0 STARLINK-3562,1 51861U 22022K   23359.10201573 -.00000053  00000-0  14749-4 0  9998,2 51861  53.2194  25.5368 0001721 107.6797 252.4383 15.08840653101485,6917.878,95.438,540.934,538.553,0.0
51861.0,STARLINK-3562,PAYLOAD,2023-12-25 08:48:28,15.08819908,0.0001543,53.2195,24.3493,89.3394,270.7775,-0.00010423,-1.945e-05,0.0,0 STARLINK-3562,1 51861U 22022K   23359.36699317 -.00001945  00000-0 -10423-3 0  9999,2 51861  53.2195  24.3493 0001543  89.3394 270.7775 15.08819908101525,6917.942,95.439,540.874,538.739,0.0
51861.0,STARLINK-3562,PAYLOAD,2023-12-26 07:03:51,15.08835189,0.0001825,53.2192,20.1849,103.3079,256.8117,2.5876e-05,1.24e-06,0.0,0 STARLINK-3562,1 51861U 22022K   23360.29435012  .00000124  00000-0  25876-4 0  9998,2 51861  53.2192  20.1849 0001825 103.3079 256.8117 15.08835189101660,6917.895,95.438,541.023,538.498,0.0
51861.0,STARLINK-3562,PAYLOAD,2023-12-27 08:30:01,15.08849342,0.0001675,53.2191,15.4352,84.6458,275.4725,0.00033934,5.118e-05,0.0,0 STARLINK-3562,1 51861U 22022K   23361.35417981  .00005118  00000-0  33934-3 0  9992,2 51861  53.2191  15.4352 0001675  84.6458 275.4725 15.08849342101826,6917.852,95.437,540.876,538.558,0.0
51861.0,STARLINK-3562,PAYLOAD,2023-12-28 00:23:53,15.08845499,0.0002257,53.2192,12.465,56.8552,303.2657,0.00030652,4.594e-05,0.0,0 STARLINK-3562,1 51861U 22022K   23362.01658838  .00004594  00000-0  30652-3 0  9995,2 51861  53.2192  12.4650 0002257  56.8552 303.2657 15.08845499101922,6917.864,95.437,541.29,538.167,0.0
51861.0,STARLINK-3562,PAYLOAD,2023-12-28 08:20:49,15.08842287,0.0001963,53.2197,10.9752,70.3066,289.8138,0.00011118,1.482e-05,0.0,0 STARLINK-3562,1 51861U 22022K   23362.34779062  .00001482  00000-0  11118-3 0  9993,2 51861  53.2197  10.9752 0001963  70.3066 289.8138 15.08842287101900,6917.873,95.437,541.096,538.38,0.0
51861.0,STARLINK-3562,PAYLOAD,2023-12-29 09:46:58,15.08853104,0.0001897,53.2191,6.2152,80.6056,279.515,-1.6447e-05,-5.5e-06,0.0,0 STARLINK-3562,1 51861U 22022K   23363.40762163 -.00000550  00000-0 -16447-4 0  9993,2 51861  53.2191   6.2152 0001897  80.6056 279.5150 15.08853104102131,6917.84,95.437,541.018,538.393,0.0
51861.0,STARLINK-3562,PAYLOAD,2023-12-30 09:37:45,15.08841074,0.0001952,53.2209,1.7499,84.4185,275.703,0.00016414,2.325e-05,0.0,0 STARLINK-3562,1 51861U 22022K   23364.40122177  .00002325  00000-0  16414-3 0  9992,2 51861  53.2209   1.7499 0001952  84.4185 275.7030 15.08841074102286,6917.877,95.437,541.092,538.392,0.0
51861.0,STARLINK-3562,PAYLOAD,2023-12-31 03:06:59,15.08851027,0.0001775,53.2192,358.4801,95.928,264.1914,8.5132e-05,1.067e-05,0.0,0 STARLINK-3562,1 51861U 22022K   23365.12985144  .00001067  00000-0  85132-4 0  9999,2 51861  53.2192 358.4801 0001775  95.9280 264.1914 15.08851027102396,6917.847,95.437,540.94,538.484,0.0
51861.0,STARLINK-3562,PAYLOAD,2023-12-31 06:17:45,15.08853195,0.0001823,53.219,357.8856,93.0718,267.0483,0.00010712,1.418e-05,0.0,0 STARLINK-3562,1 51861U 22022K   23365.26232949  .00001418  00000-0  10712-3 0  9993,2 51861  53.2190 357.8856 0001823  93.0718 267.0483 15.08853195102342,6917.84,95.437,540.966,538.444,0.0
51861.0,STARLINK-3562,PAYLOAD,2024-01-01 02:57:47,15.08834046,0.0001684,53.2204,354.0187,100.0713,260.047,-9.6108e-05,-1.817e-05,0.0,0 STARLINK-3562,1 51861U 22022K   24001.12346723 -.00001817  00000-0 -96108-4 0  9991,2 51861  53.2204 354.0187 0001684 100.0713 260.0470 15.08834046102548,6917.899,95.438,540.929,538.599,0.0
51861.0,STARLINK-3562,PAYLOAD,2024-01-01 06:08:34,15.08831234,0.0001709,53.2193,353.4273,94.1176,266.0012,-0.00011919,-2.184e-05,0.0,0 STARLINK-3562,1 51861U 22022K   24001.25595077 -.00002184  00000-0 -11919-3 0  9997,2 51861  53.2193 353.4273 0001709  94.1176 266.0012 15.08831234102496,6917.907,95.438,540.954,538.59,0.0
51861.0,STARLINK-3562,PAYLOAD,2024-01-02 04:23:57,15.08847518,0.0001854,53.2196,349.2674,108.9355,251.1839,-1.3341e-05,-5.01e-06,0.0,0 STARLINK-3562,1 51861U 22022K   24002.18329884 -.00000501  00000-0 -13341-4 0  9994,2 51861  53.2196 349.2674 0001854 108.9355 251.1839 15.08847518102709,6917.857,95.437,541.005,538.44,0.0
51861.0,STARLINK-3562,PAYLOAD,2024-01-02 09:10:06,15.08849063,0.0002041,53.2194,348.3734,115.6303,244.49,8.0871e-06,-1.6e-06,0.0,0 STARLINK-3562,1 51861U 22022K   24002.38201629 -.00000160  00000-0  80871-5 0  9995,2 51861  53.2194 348.3734 0002041 115.6303 244.4900 15.08849063102667,6917.853,95.437,541.13,538.306,0.0
51861.0,STARLINK-3562,PAYLOAD,2024-01-03 02:39:21,15.08829785,0.0002081,53.2186,345.0997,109.5631,250.5586,0.00013249,1.82e-05,0.0,0 STARLINK-3562,1 51861U 22022K   24003.11066990  .00001820  00000-0  13249-3 0  9993,2 51861  53.2186 345.0997 0002081 109.5631 250.5586 15.08829785102840,6917.912,95.438,541.216,538.337,0.0
51861.0,STARLINK-3562,PAYLOAD,2024-01-03 09:00:54,15.08827607,0.0001943,53.219,343.9111,99.3213,260.7999,0.0001065,1.407e-05,0.0,0 STARLINK-3562,1 51861U 22022K   24003.37563452  .00001407  00000-0  10650-3 0  9990,2 51861  53.2190 343.9111 0001943  99.3213 260.7999 15.08827607102817,6917.918,95.438,541.127,538.439,0.0
51861.0,STARLINK-3562,PAYLOAD,2024-01-04 04:05:32,15.08842205,0.0001889,53.2185,340.3446,100.239,259.8815,3.3604e-05,2.47e-06,0.0,0 STARLINK-3562,1 51861U 22022K   24004.17051017  .00000247  00000-0  33604-4 0  9994,2 51861  53.2185 340.3446 0001889 100.2390 259.8815 15.08842205103009,6917.874,95.437,541.045,538.432,0.0
51861.0,STARLINK-3562,PAYLOAD,2024-01-04 07:16:17,15.08849812,0.0002117,53.2189,339.7479,99.5171,260.6061,2.7658e-05,1.52e-06,0.0,0 STARLINK-3562,1 51861U 22022K   24004.30298537  .00000152  00000-0  27658-4 0  9996,2 51861  53.2189 339.7479 0002117  99.5171 260.6061 15.08849812103029,6917.85,95.437,541.18,538.251,0.0
51861.0,STARLINK-3562,PAYLOAD,2024-01-05 03:56:19,15.08835198,0.000197,53.2193,335.879,99.5705,260.551,3.7718e-05,3.12e-06,0.0,0 STARLINK-3562,1 51861U 22022K   24005.16411416  .00000312  00000-0  37718-4 0  9990,2 51861  53.2193 335.8790 0001970  99.5705 260.5510 15.08835198103150,6917.895,95.438,541.123,538.397,0.0
51861.0,STARLINK-3562,PAYLOAD,2024-01-05 07:07:05,15.08839274,0.0001794,53.2188,335.2897,95.8422,264.2775,7.7375e-05,9.44e-06,0.0,0 STARLINK-3562,1 51861U 22022K   24005.29659236  .00000944  00000-0  77375-4 0  9992,2 51861  53.2188 335.2897 0001794  95.8422 264.2775 15.08839274103103,6917.883,95.438,540.989,538.507,0.0
51861.0,STARLINK-3562,PAYLOAD,2024-01-06 03:47:06,15.08845674,0.0001844,53.2189,331.4265,86.8182,273.3022,4.8851e-05,4.9e-06,0.0,0 STARLINK-3562,1 51861U 22022K   24006.15771095  .00000490  00000-0  48851-4 0  9999,2 51861  53.2189 331.4265 0001844  86.8182 273.3022 15.08845674103309,6917.863,95.437,541.004,538.452,0.0
51861.0,STARLINK-3562,PAYLOAD,2024-01-06 06:57:52,15.08851294,0.0001797,53.2187,330.8296,103.0908,257.0285,7.5005e-05,9.06e-06,0.0,0 STARLINK-3562,1 51861U 22022K   24006.29018528  .00000906  00000-0  75005-4 0  9992,2 51861  53.2187 330.8296 0001797 103.0908 257.0285 15.08851294103258,6917.846,95.437,540.954,538.468,0.0
51861.0,STARLINK-3562,PAYLOAD,2024-01-07 03:37:53,15.08842535,0.0001966,53.2198,326.9651,85.5372,274.5845,5.5874e-05,6.01e-06,0.0,0 STARLINK-3562,1 51861U 22022K   24007.15131175  .00000601  00000-0  55874-4 0  9996,2 51861  53.2198 326.9651 0001966  85.5372 274.5845 15.08842535103454,6917.873,95.437,541.098,538.378,0.0
51861.0,STARLINK-3562,PAYLOAD,2024-01-07 06:48:39,15.08848345,0.0001866,53.2198,326.3675,98.4408,261.6795,7.7613e-05,9.48e-06,0.0,0 STARLINK-3562,1 51861U 22022K   24007.28378594  .00000948  00000-0  77613-4 0  9997,2 51861  53.2198 326.3675 0001866  98.4408 261.6795 15.08848345103474,6917.855,95.437,541.011,538.429,0.0
51861.0,STARLINK-3562,PAYLOAD,2024-01-07 21:07:07,15.08841717,0.0001909,53.2212,323.6866,117.484,242.6347,-7.0676e-05,-1.413e-05,0.0,0 STARLINK-3562,1 51861U 22022K   24007.87995230 -.00001413  00000-0 -70676-4 0  9996,2 51861  53.2212 323.6866 0001909 117.4840 242.6347 15.08841717103493,6917.875,95.437,541.061,538.42,0.0
51861.0,STARLINK-3562,PAYLOAD,2024-01-08 03:28:40,15.08843035,0.0001808,53.2182,322.5046,96.0723,264.0476,-3.8246e-06,-3.49e-06,0.0,0 STARLINK-3562,1 51861U 22022K   24008.14491230 -.00000349  00000-0 -38246-5 0  9993,2 51861  53.2182 322.5046 0001808  96.0723 264.0476 15.08843035103606,6917.871,95.437,540.987,538.485,0.0
51861.0,STARLINK-3562,PAYLOAD,2024-01-09 01:44:02,15.08859393,0.000156,53.2201,318.3397,88.9024,271.2147,0.00011339,1.518e-05,0.0,0 STARLINK-3562,1 51861U 22022K   24009.07225063  .00001518  00000-0  11339-3 0  9994,2 51861  53.2201 318.3397 0001560  88.9024 271.2147 15.08859393103743,6917.821,95.436,540.765,538.607,0.0
51861.0,STARLINK-3562,PAYLOAD,2024-01-09 20:48:42,15.08823762,0.0001592,53.2196,314.777,62.0829,298.0324,-8.9023e-05,-1.704e-05,0.0,0 STARLINK-3562,1 51861U 22022K   24009.86716173 -.00001704  00000-0 -89023-4 0  9993,2 51861  53.2196 314.7770 0001592  62.0829 298.0324 15.08823762103792,6917.93,95.439,540.896,538.694,0.0
51861.0,STARLINK-3562,PAYLOAD,2024-01-10 01:34:51,15.08831422,0.0002236,53.2186,313.8769,37.4226,322.6921,-7.6074e-05,-1.499e-05,0.0,0 STARLINK-3562,1 51861U 22022K   24010.06587842 -.00001499  00000-0 -76074-4 0  9999,2 51861  53.2186 313.8769 0002236  37.4226 322.6921 15.08831422103892,6917.907,95.438,541.318,538.225,0.0
